GLOBALSTAR M057         
1 25943U 99058A   25332.46872673 -.00000054  00000+0  35125-3 0  9990
2 25943  51.9981 241.9713 0002907   4.9272 355.1605 12.24829586187061
GLOBALSTAR M059         
1 25944U 99058B   25332.67404066 -.00000067  00000+0  24401-3 0  9990
2 25944  51.9993 122.1772 0000815 104.4667 268.6986 11.99987846593796
GLOBALSTAR M056         
1 25945U 99058C   25332.68197953 -.00000113  00000+0 -29372-3 0  9991
2 25945  51.9943 119.8990 0001821 126.8648 245.7157 12.04782013182451
GLOBALSTAR M031         
1 25946U 99058D   25332.40142228 -.00000013  00000+0  78248-3 0  9991
2 25946  51.9988   3.1600 0001561 149.9553 311.1031 12.16044518184529
GLOBALSTAR M039         
1 25961U 99062A   25332.62158229 -.00000061  00000+0  23860-3 0  9998
2 25961  51.9822 127.8746 0002446  16.9057 343.1891 12.62338190200984
GLOBALSTAR M034         
1 25962U 99062B   25332.63954970 -.00000054  00000+0  42281-3 0  9997
2 25962  51.9891 303.9049 0014602 353.5220 177.9839 11.79452452157793
GLOBALSTAR M029         
1 25963U 99062C   25332.36113873 -.00000070  00000+0  20193-3 0  9993
2 25963  51.9827  10.9206 0002642  85.6359 286.6992 11.99903144188838
GLOBALSTAR M061         
1 25964U 99062D   25332.65702009 -.00000051  00000+0  47825-3 0  9991
2 25964  51.9761 130.0754 0004768 272.0756 171.0802 11.76778323140549
